NORAD_CAT_ID,OBJECT_NAME,OBJECT_TYPE,EPOCH,MEAN_MOTION,ECCENTRICITY,INCLINATION,RA_OF_ASC_NODE,ARG_OF_PERICENTER,MEAN_ANOMALY,BSTAR,MEAN_MOTION_DOT,MEAN_MOTION_DDOT,TLE_LINE0,TLE_LINE1,TLE_LINE2,SEMIMAJOR_AXIS,PERIOD,APOGEE,PERIGEE,DECAYED
52287.0,STARLINK-3822,PAYLOAD,2022-10-14 06:06:06,15.0884217,0.0001733999999999,53.2165,286.6389,39.1648,320.9469,5.1314e-05,5.29e-06,0.0,0 STARLINK-3822,1 52287U 22041AC  22287.25424556  .00000529  00000-0  51314-4 0  9991,2 52287  53.2165 286.6389 0001734  39.1648 320.9469 15.08842170 28027,6917.874,95.437,540.938,538.539,0.0
52287.0,STARLINK-3822,PAYLOAD,2022-10-14 12:27:39,15.08838034,0.0001799,53.2164,285.4505,38.7635,321.3486,2.3111e-06,-2.51e-06,0.0,0 STARLINK-3822,1 52287U 22041AC  22287.51920996 -.00000251  00000-0  23111-5 0  9997,2 52287  53.2164 285.4505 0001799  38.7635 321.3486 15.08838034 26841,6917.886,95.438,540.996,538.507,0.0
52287.0,STARLINK-3822,PAYLOAD,2022-10-14 17:13:48,15.08837673,0.0001675999999999,53.217,284.5587,41.17100000000001,318.9409,9.6281e-05,1.245e-05,0.0,0 STARLINK-3822,1 52287U 22041AC  22287.71792726  .00001245  00000-0  96281-4 0  9997,2 52287  53.2170 284.5587 0001676  41.1710 318.9409 15.08837673 26872,6917.888000000001,95.438,540.9119999999998,538.5930000000002,0.0
52287.0,STARLINK-3822,PAYLOAD,2022-10-15 05:56:53,15.08841173,0.0001965,53.2161,282.1793,39.0063,321.1071,5.9768e-05,6.63e-06,0.0,0 STARLINK-3822,1 52287U 22041AC  22288.24784335  .00000663  00000-0  59768-4 0  9995,2 52287  53.2161 282.1793 0001965  39.0063 321.1071 15.08841173 26953,6917.877,95.437,541.101,538.382,0.0
52287.0,STARLINK-3822,PAYLOAD,2022-10-15 23:26:08,15.08836425,0.0001909,53.2156,278.9086,42.8409,317.2731,-5.5203e-05,-1.167e-05,0.0,0 STARLINK-3822,1 52287U 22041AC  22288.97649130 -.00001167  00000-0 -55203-4 0  9990,2 52287  53.2156 278.9086 0001909  42.8409 317.2731 15.08836425 28280,6917.891,95.438,541.077,538.436,0.0
52287.0,STARLINK-3822,PAYLOAD,2022-10-16 08:58:28,15.08826825,0.0001984,53.2158,277.1242,44.0237,316.0913,-5.813899999999999e-05,-1.213e-05,0.0,0 STARLINK-3822,1 52287U 22041AC  22289.37393950 -.00001213  00000-0 -58139-4 0  9994,2 52287  53.2158 277.1242 0001984  44.0237 316.0913 15.08826825 28342,6917.920999999999,95.438,541.158,538.413,0.0
52287.0,STARLINK-3822,PAYLOAD,2022-10-17 05:38:29,15.0883308,0.0001916999999999,53.2166,273.2565,48.8528,311.2629,-4.7765e-05,-1.048e-05,0.0,0 STARLINK-3822,1 52287U 22041AC  22290.23505960 -.00001048  00000-0 -47765-4 0  9996,2 52287  53.2166 273.2565 0001917  48.8528 311.2629 15.08833080 28473,6917.901999999999,95.438,541.0930000000002,538.44,0.0
52287.0,STARLINK-3822,PAYLOAD,2022-10-17 08:49:15,15.088282,0.0001918,53.217,272.6615,51.9924,308.1241,-3.1184e-05,-7.84e-06,0.0,0 STARLINK-3822,1 52287U 22041AC  22290.36754281 -.00000784  00000-0 -31184-4 0  9996,2 52287  53.2170 272.6615 0001918  51.9924 308.1241 15.08828200 27273,6917.916,95.438,541.1080000000002,538.455,0.0
52287.0,STARLINK-3822,PAYLOAD,2022-10-18 03:53:52,15.08838184,0.0001699999999999,53.2168,269.093,39.0478,321.0637,0.00015023,2.104e-05,0.0,0 STARLINK-3822,1 52287U 22041AC  22291.16241107  .00002104  00000-0  15023-3 0  9992,2 52287  53.2168 269.0930 0001700  39.0478 321.0637 15.08838184 28614,6917.886,95.438,540.927,538.575,0.0
52287.0,STARLINK-3822,PAYLOAD,2022-10-18 08:40:02,15.08832507,0.0001996,53.2154,268.2035,38.6972,321.4162,8.1999e-05,1.017e-05,0.0,0 STARLINK-3822,1 52287U 22041AC  22291.36113803  .00001017  00000-0  81999-4 0  9993,2 52287  53.2154 268.2035 0001996  38.6972 321.4162 15.08832507 28640,6917.903,95.438,541.149,538.387,0.0
52287.0,STARLINK-3822,PAYLOAD,2022-10-18 15:01:35,15.0882222,0.0001855,53.2157,267.0114,43.7005,316.4133,1.656e-06,-2.62e-06,0.0,0 STARLINK-3822,1 52287U 22041AC  22291.62610927 -.00000262  00000-0  16560-5 0  9996,2 52287  53.2157 267.0114 0001855  43.7005 316.4133 15.08822220 27468,6917.935,95.439,541.0830000000002,538.516,0.0
52287.0,STARLINK-3822,PAYLOAD,2022-10-19 06:55:26,15.08839262,0.0001819,53.2168,264.0379,37.7546,322.3573,-8.586799999999999e-06,-4.25e-06,0.0,0 STARLINK-3822,1 52287U 22041AC  22292.28850365 -.00000425  00000-0 -85868-5 0  9990,2 52287  53.2168 264.0379 0001819  37.7546 322.3573 15.08839262 28787,6917.8830000000025,95.438,541.006,538.489,0.0
52287.0,STARLINK-3822,PAYLOAD,2022-10-19 10:06:12,15.08841266,0.0001794,53.2167,263.4436,43.2483,316.865,1.9495e-05,2.2e-07,0.0,0 STARLINK-3822,1 52287U 22041AC  22292.42098134  .00000022  00000-0  19495-4 0  9997,2 52287  53.2167 263.4436 0001794  43.2483 316.8650 15.08841266 27585,6917.877,95.437,540.9830000000002,538.5,0.0
52287.0,STARLINK-3822,PAYLOAD,2022-10-20 08:21:36,15.08838527,0.0001844999999999,53.2171,259.2802,48.1461,311.9688,5.2995e-05,5.55e-06,0.0,0 STARLINK-3822,1 52287U 22041AC  22293.34834050  .00000555  00000-0  52995-4 0  9997,2 52287  53.2171 259.2802 0001845  48.1461 311.9688 15.08838527 28941,6917.885,95.438,541.026,538.474,0.0
52287.0,STARLINK-3822,PAYLOAD,2022-10-21 06:37:00,15.08842878,0.0001909999999999,53.2172,255.1172,43.4873,316.627,1.2732e-05,-8.6e-07,0.0,0 STARLINK-3822,1 52287U 22041AC  22294.27570057 -.00000086  00000-0  12732-4 0  9999,2 52287  53.2172 255.1172 0001910  43.4873 316.6270 15.08842878 27868,6917.871999999999,95.437,541.058,538.415,0.0
52287.0,STARLINK-3822,PAYLOAD,2022-10-21 14:33:55,15.08845456,0.0001909,53.2173,253.6304,44.1644,315.95,3.0685e-05,2e-06,0.0,0 STARLINK-3822,1 52287U 22041AC  22294.60689716  .00000200  00000-0  30685-4 0  9993,2 52287  53.2173 253.6304 0001909  44.1644 315.9500 15.08845456 29136,6917.864000000001,95.437,541.049,538.408,0.0
52287.0,STARLINK-3822,PAYLOAD,2022-10-22 06:27:47,15.08841246,0.0001846,53.2163,250.6569,46.8192,313.2954,3.333e-05,2.42e-06,0.0,0 STARLINK-3822,1 52287U 22041AC  22295.26929780  .00000242  00000-0  33330-4 0  9990,2 52287  53.2163 250.6569 0001846  46.8192 313.2954 15.08841246 28015,6917.877,95.437,541.019,538.465,0.0
52287.0,STARLINK-3822,PAYLOAD,2022-10-22 20:46:15,15.08838844,0.000167,53.2181,247.9774,48.3659,311.7476,9.7458e-06,-1.33e-06,0.0,0 STARLINK-3822,1 52287U 22041AC  22295.86546000 -.00000133  00000-0  97458-5 0  9998,2 52287  53.2181 247.9774 0001670  48.3659 311.7476 15.08838844 28104,6917.884,95.438,540.904,538.594,0.0
52287.0,STARLINK-3822,PAYLOAD,2022-10-23 06:18:33,15.08846958,0.0001982,53.217,246.1985,43.9046,316.2104,3.4741e-05,2.65e-06,0.0,0 STARLINK-3822,1 52287U 22041AC  22296.26289305  .00000265  00000-0  34741-4 0  9995,2 52287  53.2170 246.1985 0001982  43.9046 316.2104 15.08846958 29388,6917.859,95.437,541.095,538.3530000000002,0.0
52287.0,STARLINK-3822,PAYLOAD,2022-10-23 20:37:01,15.08848176,0.0002039,53.2172,243.5223,45.4017,314.7141,8.464e-05,1.059e-05,0.0,0 STARLINK-3822,1 52287U 22041AC  22296.85904708  .00001059  00000-0  84640-4 0  9996,2 52287  53.2172 243.5223 0002039  45.4017 314.7141 15.08848176 28258,6917.855,95.437,541.131,538.31,0.0
52287.0,STARLINK-3822,PAYLOAD,2022-10-24 02:58:33,15.08851745,0.0001991,53.2186,242.3316,51.0684,309.0485,0.00010502,1.384e-05,0.0,0 STARLINK-3822,1 52287U 22041AC  22297.12400172  .00001384  00000-0  10502-3 0  9999,2 52287  53.2186 242.3316 0001991  51.0684 309.0485 15.08851745 29516,6917.844,95.437,541.087,538.332,0.0
52287.0,STARLINK-3822,PAYLOAD,2022-10-24 20:27:50,15.08828076,0.0002150999999999,53.2169,239.0622,44.39,315.7264,-0.00014899,-2.658e-05,0.0,0 STARLINK-3822,1 52287U 22041AC  22297.85266878 -.00002658  00000-0 -14899-3 0  9992,2 52287  53.2169 239.0622 0002151  44.3900 315.7264 15.08828076 29627,6917.917,95.438,541.27,538.294,0.0
52287.0,STARLINK-3822,PAYLOAD,2022-10-25 06:00:09,15.08823898,0.0001761999999999,53.217,237.2753,48.3072,311.8071,-0.00017878,-3.131e-05,0.0,0 STARLINK-3822,1 52287U 22041AC  22298.25011477 -.00003131  00000-0 -17878-3 0  9997,2 52287  53.2170 237.2753 0001762  48.3072 311.8071 15.08823898 28466,6917.93,95.439,541.014,538.576,0.0
52287.0,STARLINK-3822,PAYLOAD,2022-10-26 04:15:33,15.08838974,0.0001911999999999,53.2169,233.1134,48.591,311.5246,-7.383800000000001e-05,-1.463e-05,0.0,0 STARLINK-3822,1 52287U 22041AC  22299.17746802 -.00001463  00000-0 -73838-4 0  9991,2 52287  53.2169 233.1134 0001912  48.5910 311.5246 15.08838974 28600,6917.884,95.438,541.071,538.4259999999998,0.0
52287.0,STARLINK-3822,PAYLOAD,2022-10-27 12:03:15,15.08839216,0.0001889,53.2173,227.1659,47.7166,312.3986,0.00019376,2.797e-05,0.0,0 STARLINK-3822,1 52287U 22041AC  22300.50226688  .00002797  00000-0  19376-3 0  9991,2 52287  53.2173 227.1659 0001889  47.7166 312.3986 15.08839216 28809,6917.8830000000025,95.438,541.055,538.441,0.0
52287.0,STARLINK-3822,PAYLOAD,2022-10-28 11:54:02,15.08848441,0.0001966999999999,53.2172,222.7054,49.2551,310.8612,9.0028e-05,1.145e-05,0.0,0 STARLINK-3822,1 52287U 22041AC  22301.49586294  .00001145  00000-0  90028-4 0  9992,2 52287  53.2172 222.7054 0001967  49.2551 310.8612 15.08848441 28955,6917.855,95.437,541.08,538.359,0.0
52287.0,STARLINK-3822,PAYLOAD,2022-10-29 03:47:54,15.08840556,0.0002056,53.2171,219.7317,50.0146,310.1027,-2.7974e-05,-7.33e-06,0.0,0 STARLINK-3822,1 52287U 22041AC  22302.15827056 -.00000733  00000-0 -27974-4 0  9994,2 52287  53.2171 219.7317 0002056  50.0146 310.1027 15.08840556 30272,6917.879,95.438,541.1659999999998,538.321,0.0
52287.0,STARLINK-3822,PAYLOAD,2022-10-29 18:06:21,15.08850615,0.0001943999999999,53.2165,217.0552,50.3476,309.7687,3.9626e-05,3.43e-06,0.0,0 STARLINK-3822,1 52287U 22041AC  22302.75441633  .00000343  00000-0  39626-4 0  9995,2 52287  53.2165 217.0552 0001944  50.3476 309.7687 15.08850615 29148,6917.848000000001,95.437,541.058,538.368,0.0
52287.0,STARLINK-3822,PAYLOAD,2022-10-29 22:52:31,15.08844264,0.0001909,53.2166,216.1624,50.4801,309.6359,-2.9977e-06,-3.36e-06,0.0,0 STARLINK-3822,1 52287U 22041AC  22302.95314124 -.00000336  00000-0 -29977-5 0  9994,2 52287  53.2166 216.1624 0001909  50.4801 309.6359 15.08844264 30390,6917.8669999999975,95.437,541.053,538.4119999999998,0.0
